{"type": "FeatureCollection", "features": [{"type": "Feature", "properties": {"water": 1}, "geometry": {"type": "Point", "coordinates": [91.51176960868341, 26.134268140612622]}}, {"type": "Feature", "properties": {"water": 1}, "geometry": {"type": "Point", "coordinates": [91.49789772699927, 26.045456675984642]}}, {"type": "Feature", "properties": {"water": 1}, "geometry": {"type": "Point", "coordinates": [91.50498751515795, 26.143156004762734]}}, {"type": "Feature", "properties": {"water": 1}, "geometry": {"type": "Point", "coordinates": [91.51600522872116, 26.131542352615405]}}]}