{"type": "FeatureCollection", "features": [{"type": "Feature", "properties": {"ndvi": 0.26}, "geometry": {"type": "Point", "coordinates": [91.53960121416051, 26.13908358177725]}}, {"type": "Feature", "properties": {"ndvi": 0.78}, "geometry": {"type": "Point", "coordinates": [91.48802907649633, 26.081289028391605]}}, {"type": "Feature", "properties": {"ndvi": 0.36}, "geometry": {"type": "Point", "coordinates": [91.47667865791982, 26.0520470246719]}}, {"type": "Feature", "properties": {"ndvi": 0.52}, "geometry": {"type": "Point", "coordinates": [91.47797395143756, 26.078864213087275]}}, {"type": "Feature", "properties": {"ndvi": 0.4}, "geometry": {"type": "Point", "coordinates": [91.50630285322923, 26.135107448048277]}}, {"type": "Feature", "properties": {"ndvi": 0.47}, "geometry": {"type": "Point", "coordinates": [91.54568406719373, 26.077155767748593]}}]}