{"type": "FeatureCollection", "features": [{"type": "Feature", "properties": {"ndvi": 0.48}, "geometry": {"type": "Point", "coordinates": [91.47388318318043, 26.06480356418212]}}, {"type": "Feature", "properties": {"ndvi": 0.29}, "geometry": {"type": "Point", "coordinates": [91.54279922796871, 26.111349871325288]}}, {"type": "Feature", "properties": {"ndvi": 0.5}, "geometry": {"type": "Point", "coordinates": [91.51806890115661, 26.148055003865437]}}, {"type": "Feature", "properties": {"ndvi": 0.72}, "geometry": {"type": "Point", "coordinates": [91.52410837655377, 26.14506088922393]}}, {"type": "Feature", "properties": {"ndvi": 0.7}, "geometry": {"type": "Point", "coordinates": [91.4924158627962, 26.055166595529105]}}, {"type": "Feature", "properties": {"ndvi": 0.51}, "geometry": {"type": "Point", "coordinates": [91.47439366905547, 26.087308982711306]}}]}