{"type": "FeatureCollection", "features": [{"type": "Feature", "properties": {"ndvi": 0.59}, "geometry": {"type": "Point", "coordinates": [91.5316554025951, 26.092640597517452]}}, {"type": "Feature", "properties": {"ndvi": 0.43}, "geometry": {"type": "Point", "coordinates": [91.54581704815551, 26.050092052402693]}}, {"type": "Feature", "properties": {"ndvi": 0.6}, "geometry": {"type": "Point", "coordinates": [91.53974872979104, 26.083961811120012]}}, {"type": "Feature", "properties": {"ndvi": 0.44}, "geometry": {"type": "Point", "coordinates": [91.45764726661926, 26.064001469371156]}}, {"type": "Feature", "properties": {"ndvi": 0.59}, "geometry": {"type": "Point", "coordinates": [91.45134489446852, 26.093717391576494]}}, {"type": "Feature", "properties": {"ndvi": 0.59}, "geometry": {"type": "Point", "coordinates": [91.53531271994903, 26.08871827394558]}}]}