{"type": "FeatureCollection", "features": [{"type": "Feature", "properties": {"ndvi": 0.33}, "geometry": {"type": "Point", "coordinates": [91.4976321794941, 26.125097397527885]}}, {"type": "Feature", "properties": {"ndvi": 0.51}, "geometry": {"type": "Point", "coordinates": [91.5464031465195, 26.134803270840735]}}, {"type": "Feature", "properties": {"ndvi": 0.25}, "geometry": {"type": "Point", "coordinates": [91.49572224936234, 26.141238835749903]}}, {"type": "Feature", "properties": {"ndvi": 0.29}, "geometry": {"type": "Point", "coordinates": [91.51436236764685, 26.149960165370864]}}, {"type": "Feature", "properties": {"ndvi": 0.72}, "geometry": {"type": "Point", "coordinates": [91.49902009727992, 26.13523458955987]}}, {"type": "Feature", "properties": {"ndvi": 0.36}, "geometry": {"type": "Point", "coordinates": [91.4612011807059, 26.11942688677349]}}]}