{"type": "FeatureCollection", "features": [{"type": "Feature", "properties": {"water": 1}, "geometry": {"type": "Point", "coordinates": [91.47111654032663, 26.09822462093778]}}, {"type": "Feature", "properties": {"water": 1}, "geometry": {"type": "Point", "coordinates": [91.48743003072336, 26.1176881856248]}}, {"type": "Feature", "properties": {"water": 1}, "geometry": {"type": "Point", "coordinates": [91.46221885589748, 26.15969471479343]}}, {"type": "Feature", "properties": {"water": 1}, "geometry": {"type": "Point", "coordinates": [91.52803512438713, 26.060861896677004]}}]}