{"type": "FeatureCollection", "features": [{"type": "Feature", "properties": {"ndvi": 0.54}, "geometry": {"type": "Point", "coordinates": [91.52638332611984, 26.121259167093804]}}, {"type": "Feature", "properties": {"ndvi": 0.34}, "geometry": {"type": "Point", "coordinates": [91.48730659899404, 26.05305666833014]}}, {"type": "Feature", "properties": {"ndvi": 0.65}, "geometry": {"type": "Point", "coordinates": [91.50863984581844, 26.072132772617408]}}, {"type": "Feature", "properties": {"ndvi": 0.63}, "geometry": {"type": "Point", "coordinates": [91.54819934940907, 26.08528283335723]}}, {"type": "Feature", "properties": {"ndvi": 0.74}, "geometry": {"type": "Point", "coordinates": [91.50093517434463, 26.05942715855034]}}, {"type": "Feature", "properties": {"ndvi": 0.31}, "geometry": {"type": "Point", "coordinates": [91.45687884630841, 26.09823418143643]}}]}