{"type": "FeatureCollection", "features": [{"type": "Feature", "properties": {"ndvi": 0.61}, "geometry": {"type": "Point", "coordinates": [91.54763293382035, 26.10011280647987]}}, {"type": "Feature", "properties": {"ndvi": 0.45}, "geometry": {"type": "Point", "coordinates": [91.52066890968445, 26.085326240386127]}}, {"type": "Feature", "properties": {"ndvi": 0.21}, "geometry": {"type": "Point", "coordinates": [91.50554233284043, 26.122612707341865]}}, {"type": "Feature", "properties": {"ndvi": 0.57}, "geometry": {"type": "Point", "coordinates": [91.48553414047136, 26.100021037090613]}}, {"type": "Feature", "properties": {"ndvi": 0.32}, "geometry": {"type": "Point", "coordinates": [91.48016126711715, 26.105197280005445]}}, {"type": "Feature", "properties": {"ndvi": 0.23}, "geometry": {"type": "Point", "coordinates": [91.49304372416867, 26.131993951803988]}}]}