{"type": "FeatureCollection", "features": [{"type": "Feature", "properties": {"ndvi": 0.71}, "geometry": {"type": "Point", "coordinates": [91.54155362568841, 26.060747696609535]}}, {"type": "Feature", "properties": {"ndvi": 0.45}, "geometry": {"type": "Point", "coordinates": [91.51539905946436, 26.117649711313607]}}, {"type": "Feature", "properties": {"ndvi": 0.64}, "geometry": {"type": "Point", "coordinates": [91.51711011788962, 26.06747781121303]}}, {"type": "Feature", "properties": {"ndvi": 0.53}, "geometry": {"type": "Point", "coordinates": [91.46822200660225, 26.061051033044333]}}, {"type": "Feature", "properties": {"ndvi": 0.68}, "geometry": {"type": "Point", "coordinates": [91.46418643690231, 26.14665844594424]}}, {"type": "Feature", "properties": {"ndvi": 0.64}, "geometry": {"type": "Point", "coordinates": [91.49586635757186, 26.091763792986605]}}]}