{"type": "FeatureCollection", "features": [{"type": "Feature", "properties": {"ndvi": 0.42}, "geometry": {"type": "Point", "coordinates": [91.51529873651991, 26.13677118429981]}}, {"type": "Feature", "properties": {"ndvi": 0.36}, "geometry": {"type": "Point", "coordinates": [91.45727190740573, 26.081797169260412]}}, {"type": "Feature", "properties": {"ndvi": 0.63}, "geometry": {"type": "Point", "coordinates": [91.47927803935391, 26.097683178761596]}}, {"type": "Feature", "properties": {"ndvi": 0.54}, "geometry": {"type": "Point", "coordinates": [91.51900527976498, 26.078683461102663]}}, {"type": "Feature", "properties": {"ndvi": 0.24}, "geometry": {"type": "Point", "coordinates": [91.46625574511924, 26.11550533201462]}}, {"type": "Feature", "properties": {"ndvi": 0.32}, "geometry": {"type": "Point", "coordinates": [91.46816970243856, 26.130527493705763]}}]}