{"type": "FeatureCollection", "features": [{"type": "Feature", "properties": {"ndvi": 0.7}, "geometry": {"type": "Point", "coordinates": [91.470399314547, 26.147582554803527]}}, {"type": "Feature", "properties": {"ndvi": 0.46}, "geometry": {"type": "Point", "coordinates": [91.54530600400368, 26.128596623966125]}}, {"type": "Feature", "properties": {"ndvi": 0.3}, "geometry": {"type": "Point", "coordinates": [91.48534093856358, 26.050530125186594]}}, {"type": "Feature", "properties": {"ndvi": 0.5}, "geometry": {"type": "Point", "coordinates": [91.47750215185873, 26.052320736276688]}}, {"type": "Feature", "properties": {"ndvi": 0.37}, "geometry": {"type": "Point", "coordinates": [91.52828248993093, 26.12496021421087]}}, {"type": "Feature", "properties": {"ndvi": 0.55}, "geometry": {"type": "Point", "coordinates": [91.52722256775283, 26.134240320545928]}}]}