{"type": "FeatureCollection", "features": [{"type": "Feature", "properties": {"ndvi": 0.74}, "geometry": {"type": "Point", "coordinates": [91.47963125865553, 26.086520065281345]}}, {"type": "Feature", "properties": {"ndvi": 0.57}, "geometry": {"type": "Point", "coordinates": [91.50928803524576, 26.065725004093252]}}, {"type": "Feature", "properties": {"ndvi": 0.53}, "geometry": {"type": "Point", "coordinates": [91.47215919465417, 26.052877890401053]}}, {"type": "Feature", "properties": {"ndvi": 0.45}, "geometry": {"type": "Point", "coordinates": [91.47380302762421, 26.11046134610375]}}, {"type": "Feature", "properties": {"ndvi": 0.3}, "geometry": {"type": "Point", "coordinates": [91.46821303311687, 26.100304612622658]}}, {"type": "Feature", "properties": {"ndvi": 0.31}, "geometry": {"type": "Point", "coordinates": [91.45604325178988, 26.054534104342164]}}]}