{"type": "FeatureCollection", "features": [{"type": "Feature", "properties": {"ndvi": 0.59}, "geometry": {"type": "Point", "coordinates": [91.51156125949223, 26.084430261303833]}}, {"type": "Feature", "properties": {"ndvi": 0.63}, "geometry": {"type": "Point", "coordinates": [91.46015745460932, 26.1154608681089]}}, {"type": "Feature", "properties": {"ndvi": 0.65}, "geometry": {"type": "Point", "coordinates": [91.54734479394585, 26.064369791709275]}}, {"type": "Feature", "properties": {"ndvi": 0.72}, "geometry": {"type": "Point", "coordinates": [91.5022767430714, 26.103387113249525]}}, {"type": "Feature", "properties": {"ndvi": 0.5}, "geometry": {"type": "Point", "coordinates": [91.4637934128201, 26.070318547332462]}}, {"type": "Feature", "properties": {"ndvi": 0.61}, "geometry": {"type": "Point", "coordinates": [91.4956426396239, 26.10399249053198]}}]}