{"type": "FeatureCollection", "features": [{"type": "Feature", "properties": {"water": 1}, "geometry": {"type": "Point", "coordinates": [91.5131730827175, 26.10490224002977]}}, {"type": "Feature", "properties": {"water": 1}, "geometry": {"type": "Point", "coordinates": [91.52157365285997, 26.06955342988274]}}, {"type": "Feature", "properties": {"water": 1}, "geometry": {"type": "Point", "coordinates": [91.53022540582631, 26.09476284578134]}}, {"type": "Feature", "properties": {"water": 1}, "geometry": {"type": "Point", "coordinates": [91.54949033805414, 26.046147509647998]}}]}