{"type": "FeatureCollection", "features": [{"type": "Feature", "properties": {"ndvi": 0.25}, "geometry": {"type": "Point", "coordinates": [91.47745519099833, 26.144872217103874]}}, {"type": "Feature", "properties": {"ndvi": 0.42}, "geometry": {"type": "Point", "coordinates": [91.48739249003812, 26.11727604617462]}}, {"type": "Feature", "properties": {"ndvi": 0.77}, "geometry": {"type": "Point", "coordinates": [91.47070600848485, 26.11705924987769]}}, {"type": "Feature", "properties": {"ndvi": 0.31}, "geometry": {"type": "Point", "coordinates": [91.4949861585924, 26.0529317163003]}}, {"type": "Feature", "properties": {"ndvi": 0.44}, "geometry": {"type": "Point", "coordinates": [91.53029614563269, 26.12365896651881]}}, {"type": "Feature", "properties": {"ndvi": 0.39}, "geometry": {"type": "Point", "coordinates": [91.54309302688462, 26.067307913336396]}}]}