{"type": "FeatureCollection", "features": [{"type": "Feature", "properties": {"ndvi": 0.69}, "geometry": {"type": "Point", "coordinates": [91.51708565911014, 26.12963705922462]}}, {"type": "Feature", "properties": {"ndvi": 0.46}, "geometry": {"type": "Point", "coordinates": [91.54235188384747, 26.10457610363863]}}, {"type": "Feature", "properties": {"ndvi": 0.49}, "geometry": {"type": "Point", "coordinates": [91.53926679016678, 26.077472244361278]}}, {"type": "Feature", "properties": {"ndvi": 0.35}, "geometry": {"type": "Point", "coordinates": [91.45820386168408, 26.05819126556389]}}, {"type": "Feature", "properties": {"ndvi": 0.59}, "geometry": {"type": "Point", "coordinates": [91.512121564038, 26.112699064527057]}}, {"type": "Feature", "properties": {"ndvi": 0.31}, "geometry": {"type": "Point", "coordinates": [91.50836975423938, 26.080915908385304]}}]}