{"type": "FeatureCollection", "features": [{"type": "Feature", "properties": {"ndvi": 0.66}, "geometry": {"type": "Point", "coordinates": [91.51435145238462, 26.080134629888764]}}, {"type": "Feature", "properties": {"ndvi": 0.5}, "geometry": {"type": "Point", "coordinates": [91.47376547532325, 26.135149145280533]}}, {"type": "Feature", "properties": {"ndvi": 0.68}, "geometry": {"type": "Point", "coordinates": [91.5382480473221, 26.147941129197342]}}, {"type": "Feature", "properties": {"ndvi": 0.27}, "geometry": {"type": "Point", "coordinates": [91.49702394590938, 26.05196104366467]}}, {"type": "Feature", "properties": {"ndvi": 0.32}, "geometry": {"type": "Point", "coordinates": [91.50834975086804, 26.07410867370117]}}, {"type": "Feature", "properties": {"ndvi": 0.32}, "geometry": {"type": "Point", "coordinates": [91.51583560221398, 26.135670380342084]}}]}