{"type": "FeatureCollection", "features": [{"type": "Feature", "properties": {"ndvi": 0.24}, "geometry": {"type": "Point", "coordinates": [91.5470978046866, 26.094535326329385]}}, {"type": "Feature", "properties": {"ndvi": 0.29}, "geometry": {"type": "Point", "coordinates": [91.46870901716235, 26.149800635559117]}}, {"type": "Feature", "properties": {"ndvi": 0.21}, "geometry": {"type": "Point", "coordinates": [91.51141124515654, 26.072352082289967]}}, {"type": "Feature", "properties": {"ndvi": 0.8}, "geometry": {"type": "Point", "coordinates": [91.54727755401805, 26.140332695672935]}}, {"type": "Feature", "properties": {"ndvi": 0.61}, "geometry": {"type": "Point", "coordinates": [91.53787119835647, 26.07779450974888]}}, {"type": "Feature", "properties": {"ndvi": 0.26}, "geometry": {"type": "Point", "coordinates": [91.49536519385644, 26.067017676857397]}}]}