{"type": "FeatureCollection", "features": [{"type": "Feature", "properties": {"ndvi": 0.51}, "geometry": {"type": "Point", "coordinates": [91.4871107797401, 26.11367448465191]}}, {"type": "Feature", "properties": {"ndvi": 0.55}, "geometry": {"type": "Point", "coordinates": [91.5357104257898, 26.089902429107283]}}, {"type": "Feature", "properties": {"ndvi": 0.52}, "geometry": {"type": "Point", "coordinates": [91.52379634269784, 26.123221072337813]}}, {"type": "Feature", "properties": {"ndvi": 0.56}, "geometry": {"type": "Point", "coordinates": [91.52787390039394, 26.11942850673945]}}, {"type": "Feature", "properties": {"ndvi": 0.55}, "geometry": {"type": "Point", "coordinates": [91.5274247978691, 26.096775894334677]}}, {"type": "Feature", "properties": {"ndvi": 0.58}, "geometry": {"type": "Point", "coordinates": [91.54812917190478, 26.134501163268595]}}]}