{"type": "FeatureCollection", "features": [{"type": "Feature", "properties": {"ndvi": 0.76}, "geometry": {"type": "Point", "coordinates": [91.54136253173364, 26.092574175525513]}}, {"type": "Feature", "properties": {"ndvi": 0.45}, "geometry": {"type": "Point", "coordinates": [91.50931849834154, 26.068020678349907]}}, {"type": "Feature", "properties": {"ndvi": 0.22}, "geometry": {"type": "Point", "coordinates": [91.49303378129531, 26.114135484457954]}}, {"type": "Feature", "properties": {"ndvi": 0.63}, "geometry": {"type": "Point", "coordinates": [91.47666894291446, 26.065675179368103]}}, {"type": "Feature", "properties": {"ndvi": 0.27}, "geometry": {"type": "Point", "coordinates": [91.5317870109215, 26.058904805012414]}}, {"type": "Feature", "properties": {"ndvi": 0.46}, "geometry": {"type": "Point", "coordinates": [91.50478772720857, 26.144309971467848]}}]}