{"type": "FeatureCollection", "features": [{"type": "Feature", "properties": {"ndvi": 0.46}, "geometry": {"type": "Point", "coordinates": [91.47424579720541, 26.131244546889402]}}, {"type": "Feature", "properties": {"ndvi": 0.39}, "geometry": {"type": "Point", "coordinates": [91.4738078837099, 26.067947935925986]}}, {"type": "Feature", "properties": {"ndvi": 0.34}, "geometry": {"type": "Point", "coordinates": [91.47733246120902, 26.089223827513152]}}, {"type": "Feature", "properties": {"ndvi": 0.7}, "geometry": {"type": "Point", "coordinates": [91.5378346683896, 26.060313404917704]}}, {"type": "Feature", "properties": {"ndvi": 0.42}, "geometry": {"type": "Point", "coordinates": [91.50489676529335, 26.11408187073929]}}, {"type": "Feature", "properties": {"ndvi": 0.48}, "geometry": {"type": "Point", "coordinates": [91.49911959314493, 26.109724098302294]}}]}