{"type": "FeatureCollection", "features": [{"type": "Feature", "properties": {"ndvi": 0.36}, "geometry": {"type": "Point", "coordinates": [91.50957511883516, 26.080889765710484]}}, {"type": "Feature", "properties": {"ndvi": 0.41}, "geometry": {"type": "Point", "coordinates": [91.54279017479793, 26.065301498831033]}}, {"type": "Feature", "properties": {"ndvi": 0.74}, "geometry": {"type": "Point", "coordinates": [91.53014468917594, 26.12377468932741]}}, {"type": "Feature", "properties": {"ndvi": 0.59}, "geometry": {"type": "Point", "coordinates": [91.51413541045675, 26.111343363275193]}}, {"type": "Feature", "properties": {"ndvi": 0.5}, "geometry": {"type": "Point", "coordinates": [91.51355595984838, 26.0609690491649]}}, {"type": "Feature", "properties": {"ndvi": 0.45}, "geometry": {"type": "Point", "coordinates": [91.4744700970531, 26.121192778670093]}}]}