{"type": "FeatureCollection", "features": [{"type": "Feature", "properties": {"ndvi": 0.77}, "geometry": {"type": "Point", "coordinates": [91.48822493900896, 26.140907338017605]}}, {"type": "Feature", "properties": {"ndvi": 0.56}, "geometry": {"type": "Point", "coordinates": [91.48415856032594, 26.096657600474973]}}, {"type": "Feature", "properties": {"ndvi": 0.21}, "geometry": {"type": "Point", "coordinates": [91.52765112761814, 26.149163551562932]}}, {"type": "Feature", "properties": {"ndvi": 0.46}, "geometry": {"type": "Point", "coordinates": [91.46540003748504, 26.08985556339381]}}, {"type": "Feature", "properties": {"ndvi": 0.44}, "geometry": {"type": "Point", "coordinates": [91.4907032652307, 26.143510703839517]}}, {"type": "Feature", "properties": {"ndvi": 0.51}, "geometry": {"type": "Point", "coordinates": [91.52984341113333, 26.135310053063247]}}]}