{"type": "FeatureCollection", "features": [{"type": "Feature", "properties": {"ndvi": 0.59}, "geometry": {"type": "Point", "coordinates": [91.4602060642877, 26.102815788085497]}}, {"type": "Feature", "properties": {"ndvi": 0.31}, "geometry": {"type": "Point", "coordinates": [91.45018089315528, 26.10530724552397]}}, {"type": "Feature", "properties": {"ndvi": 0.66}, "geometry": {"type": "Point", "coordinates": [91.48310496486853, 26.07246384067607]}}, {"type": "Feature", "properties": {"ndvi": 0.48}, "geometry": {"type": "Point", "coordinates": [91.48351646563441, 26.050842599973343]}}, {"type": "Feature", "properties": {"ndvi": 0.76}, "geometry": {"type": "Point", "coordinates": [91.45611279499846, 26.124447597186137]}}, {"type": "Feature", "properties": {"ndvi": 0.55}, "geometry": {"type": "Point", "coordinates": [91.50220662281508, 26.115897542911675]}}]}