{"type": "FeatureCollection", "features": [{"type": "Feature", "properties": {"water": 1}, "geometry": {"type": "Point", "coordinates": [91.45232425784599, 26.08996661578948]}}, {"type": "Feature", "properties": {"water": 1}, "geometry": {"type": "Point", "coordinates": [91.49727645429556, 26.150950959502076]}}, {"type": "Feature", "properties": {"water": 1}, "geometry": {"type": "Point", "coordinates": [91.46497125045576, 26.049243514909513]}}, {"type": "Feature", "properties": {"water": 1}, "geometry": {"type": "Point", "coordinates": [91.50230697259643, 26.15729959394817]}}]}