{"type": "FeatureCollection", "features": [{"type": "Feature", "properties": {"ndvi": 0.42}, "geometry": {"type": "Point", "coordinates": [91.46689077690131, 26.148284098572752]}}, {"type": "Feature", "properties": {"ndvi": 0.78}, "geometry": {"type": "Point", "coordinates": [91.53868466099819, 26.086779533022522]}}, {"type": "Feature", "properties": {"ndvi": 0.42}, "geometry": {"type": "Point", "coordinates": [91.54044973197101, 26.136493481470062]}}, {"type": "Feature", "properties": {"ndvi": 0.75}, "geometry": {"type": "Point", "coordinates": [91.46199927743474, 26.076486168930824]}}, {"type": "Feature", "properties": {"ndvi": 0.4}, "geometry": {"type": "Point", "coordinates": [91.53520827566051, 26.13218999062933]}}, {"type": "Feature", "properties": {"ndvi": 0.32}, "geometry": {"type": "Point", "coordinates": [91.47377178133446, 26.112227702695556]}}]}