{"type": "FeatureCollection", "features": [{"type": "Feature", "properties": {"ndvi": 0.36}, "geometry": {"type": "Point", "coordinates": [91.5099438621223, 26.09094985554836]}}, {"type": "Feature", "properties": {"ndvi": 0.5}, "geometry": {"type": "Point", "coordinates": [91.50797745236544, 26.117327522828305]}}, {"type": "Feature", "properties": {"ndvi": 0.76}, "geometry": {"type": "Point", "coordinates": [91.50591863711243, 26.06247557092573]}}, {"type": "Feature", "properties": {"ndvi": 0.67}, "geometry": {"type": "Point", "coordinates": [91.49208344471208, 26.085519510843]}}, {"type": "Feature", "properties": {"ndvi": 0.55}, "geometry": {"type": "Point", "coordinates": [91.51428629177288, 26.13298073377173]}}, {"type": "Feature", "properties": {"ndvi": 0.31}, "geometry": {"type": "Point", "coordinates": [91.50283262567838, 26.118924657627876]}}]}