{"type": "FeatureCollection", "features": [{"type": "Feature", "properties": {"ndvi": 0.62}, "geometry": {"type": "Point", "coordinates": [91.45823108956516, 26.05493112942802]}}, {"type": "Feature", "properties": {"ndvi": 0.33}, "geometry": {"type": "Point", "coordinates": [91.53236691724288, 26.11344363898621]}}, {"type": "Feature", "properties": {"ndvi": 0.45}, "geometry": {"type": "Point", "coordinates": [91.50501828872963, 26.132429121861655]}}, {"type": "Feature", "properties": {"ndvi": 0.65}, "geometry": {"type": "Point", "coordinates": [91.53713722515054, 26.077799918821434]}}, {"type": "Feature", "properties": {"ndvi": 0.68}, "geometry": {"type": "Point", "coordinates": [91.52728758127898, 26.0822994088788]}}, {"type": "Feature", "properties": {"ndvi": 0.25}, "geometry": {"type": "Point", "coordinates": [91.50689587961682, 26.073453683036327]}}]}