{"type": "FeatureCollection", "features": [{"type": "Feature", "properties": {"water": 1}, "geometry": {"type": "Point", "coordinates": [91.51535766459953, 26.116896596236526]}}, {"type": "Feature", "properties": {"water": 1}, "geometry": {"type": "Point", "coordinates": [91.46211016282122, 26.042388047672897]}}, {"type": "Feature", "properties": {"water": 1}, "geometry": {"type": "Point", "coordinates": [91.47404139037918, 26.081301417992428]}}, {"type": "Feature", "properties": {"water": 1}, "geometry": {"type": "Point", "coordinates": [91.54688110608372, 26.10293133997186]}}]}